STARLETTE               
1 07646U 75010A   24304.19233902 -.00000088  00000+0  41055-4 0  9993
2 07646  49.8250 293.1312 0205712 257.4557 100.3257 13.82336127512211
LAGEOS 1                
1 08820U 76039A   24304.04464306  .00000023  00000+0  00000+0 0  9996
2 08820 109.8550 335.4945 0043995  69.5071 327.8656  6.38664973875547
AJISAI (EGS)            
1 16908U 86061A   24303.96704064 -.00000060  00000+0  26610-3 0  9997
2 16908  50.0072 177.6748 0011484 104.6620 268.9299 12.44508631406275
COSMOS 1989 (ETALON 1)  
1 19751U 89001C   24303.46826557  .00000038  00000+0  00000+0 0  9995
2 19751  64.6186  92.6222 0023729 216.0052 178.3091  2.13156188278672
COSMOS 2024 (ETALON 2)  
1 20026U 89039C   24303.36650351 -.00000038  00000+0  00000+0 0  9990
2 20026  65.2739 330.9856 0019802 216.7128 154.7457  2.13204559275801
LAGEOS 2                
1 22195U 92070B   24303.46591769 -.00000009  00000+0  00000+0 0  9994
2 22195  52.6565 283.1454 0137471 286.3990 238.6484  6.47293789756858
STELLA                  
1 22824U 93061B   24303.95084028  .00000020  00000+0  26665-4 0  9995
2 22824  98.8616 352.2222 0006684 158.5269 258.6461 14.27439131619852
LARETS                  
1 27944U 03042F   24304.13613552  .00000559  00000+0  11699-3 0  9991
2 27944  98.3359  85.7002 0013546  93.8113 266.4638 14.63626467126392
LARES                   
1 38077U 12006A   24303.67657057 -.00000056  00000+0 -10931-3 0  9998
2 38077  69.4908 229.4304 0011270 249.5619 110.4198 12.54931724582359
LARES-2                 
1 53105U 22080A   24302.83702619  .00000031  00000+0  00000+0 0  9995
2 53105  70.1372 149.8655 0004860 107.9858 252.1519  6.38965306 53560
